OBJECT_NAME,OBJECT_ID,EPOCH,MEAN_MOTION,ECCENTRICITY,INCLINATION,RA_OF_ASC_NODE,ARG_OF_PERICENTER,MEAN_ANOMALY,EPHEMERIS_TYPE,CLASSIFICATION_TYPE,NORAD_CAT_ID,ELEMENT_SET_NO,REV_AT_EPOCH,BSTAR,MEAN_MOTION_DOT,MEAN_MOTION_DDOT
EYESAT A (AO-27),1993-061C,2026-07-07T03:18:34.841664,14.30947627,.000916,98.6871,255.5434,47.8200,312.3759,0,U,22825,999,70985,.44304E-4,.72E-6,0
ITAMSAT (IO-26),1993-061D,2026-07-06T16:36:24.054912,14.31375033,.0009437,98.6820,255.0170,33.2338,326.9435,0,U,22826,999,71010,.50471E-4,.89E-6,0
RADIO ROSTO (RS15),1994-085A,2026-07-07T10:13:07.639104,11.27583445,.0156635,64.8166,270.4858,0.1409,359.9534,0,U,23439,999,29818,.16096E-3,-.37E-6,0
JAS-2 (FO-29),1996-046B,2026-07-06T19:54:29.022048,13.53275038,.0350676,98.5225,34.0093,45.6079,317.3214,0,U,24278,999,47582,.15885E-4,-.18E-6,0
FORTE,1997-047A,2026-07-07T09:49:03.330912,14.27953273,.0024505,69.9546,328.3436,252.9124,106.9314,0,U,24920,999,50157,.77621E-4,.135E-5,0
TECHSAT 1B (GO-32),1998-043D,2026-07-06T22:38:06.694656,14.24432203,.0001943,99.0077,181.2008,128.2186,231.9167,0,U,25397,999,45414,.3796E-4,.41E-6,0
ISS (ZARYA),1998-067A,2026-07-07T12:12:01.986912,15.48933372,.0006687,51.6304,199.5144,267.6545,92.3678,0,U,25544,999,57490,.11369E-3,.5806E-4,0
IMAGE,2000-017A,2026-07-06T05:56:59.074080,1.68666489,.74188478,94.2437,315.6222,285.6487,9.6557,0,U,26113,999,16182,0,-.11E-6,0
CLUSTER II-FM7 (SAMBA),2000-041A,2026-07-09T10:47:07.793664,0.44874124,.9081563,149.8605,54.9301,272.3489,359.6364,0,U,26410,999,2041,0,.10356E-3,0
CLUSTER II-FM8 (TANGO),2000-045B,2026-07-05T10:45:13.845888,0.44420952,.9082146,150.0908,55.3344,272.5670,2.3329,0,U,26464,999,2039,0,.7114E-4,0
ODIN,2001-007A,2026-07-06T23:37:23.539008,15.85006600,.0005299,97.3761,230.3091,141.5779,218.5869,0,U,26702,999,39252,.10929E-2,.262243E-2,0
OMNI-M1,2001-026A,2026-07-02T00:09:17.717184,3.92402003,.00137998,44.8270,241.8483,56.1769,304.0224,0,U,26857,999,20615,0,.7E-7,0
PCSAT (NO-44),2001-043C,2026-07-06T17:11:00.627072,14.31962724,.0005989,67.0487,193.7609,265.9645,94.0772,0,U,26931,999,29324,.70598E-4,.106E-5,0
PROBA-1,2001-049B,2026-07-07T12:19:42.941280,15.07590104,.0056023,97.9598,197.7565,55.0591,305.5880,0,U,26958,999,34668,.1806E-3,.2776E-4,0
SAUDISAT 1C (SO-50),2002-058C,2026-07-07T02:45:35.668224,14.83088031,.0074752,64.5520,67.3282,258.7570,100.5128,0,U,27607,999,26741,.10582E-3,.749E-5,0
CORIOLIS,2003-001A,2026-07-06T22:15:24.486336,14.19950145,.001456,98.7129,194.5108,151.8272,208.3695,0,U,27640,999,21702,.57983E-4,.8E-6,0
CUTE-1 (CO-55),2003-031E,2026-07-07T11:30:08.420832,14.24348198,.0010633,98.6738,196.7829,122.6531,237.5675,0,U,27844,999,19456,.12008E-3,.234E-5,0
CUBESAT XI-IV (CO-57),2003-031J,2026-07-07T11:28:11.924256,14.23631593,.001021,98.6771,196.4779,139.6847,220.5090,0,U,27848,999,19426,.10456E-3,.195E-5,0
MOZHAETS 4 (RS22),2003-042A,2026-07-07T12:29:52.611648,14.73506306,.0010656,98.3478,13.4544,198.2557,246.5715,0,U,27939,999,21854,.14703E-3,.902E-5,0
SAUDISAT 2,2004-025F,2026-07-06T22:46:15.146688,14.56695117,.0023655,98.5514,188.4419,234.4243,125.4749,0,U,28371,999,16862,.58559E-4,.213E-5,0
